[{"OBJECT_NAME":"QIANFAN-103","OBJECT_ID":"2025-233N","EPOCH":"2026-03-05T04:45:49.239648","MEAN_MOTION":13.51006099,"ECCENTRICITY":0.0001898,"INCLINATION":88.9936,"RA_OF_ASC_NODE":53.7037,"ARG_OF_PERICENTER":91.5441,"MEAN_ANOMALY":268.5928,"EPHEMERIS_TYPE":0,"CLASSIFICATION_TYPE":"U","NORAD_CAT_ID":66045,"ELEMENT_SET_NO":999,"REV_AT_EPOCH":1914,"BSTAR":9.5062e-6,"MEAN_MOTION_DOT":1.8e-7,"MEAN_MOTION_DDOT":0},{"OBJECT_NAME":"QIANFAN-104","OBJECT_ID":"2025-233P","EPOCH":"2026-03-05T04:51:26.261856","MEAN_MOTION":13.51010201,"ECCENTRICITY":0.000208,"INCLINATION":88.994,"RA_OF_ASC_NODE":53.6008,"ARG_OF_PERICENTER":85.9175,"MEAN_ANOMALY":274.2214,"EPHEMERIS_TYPE":0,"CLASSIFICATION_TYPE":"U","NORAD_CAT_ID":66046,"ELEMENT_SET_NO":999,"REV_AT_EPOCH":1919,"BSTAR":2.5121e-5,"MEAN_MOTION_DOT":2.8e-7,"MEAN_MOTION_DDOT":0},{"OBJECT_NAME":"QIANFAN-105","OBJECT_ID":"2025-233Q","EPOCH":"2026-03-05T03:16:32.065536","MEAN_MOTION":13.50981462,"ECCENTRICITY":0.000204,"INCLINATION":88.9953,"RA_OF_ASC_NODE":53.4366,"ARG_OF_PERICENTER":92.4997,"MEAN_ANOMALY":267.6388,"EPHEMERIS_TYPE":0,"CLASSIFICATION_TYPE":"U","NORAD_CAT_ID":66047,"ELEMENT_SET_NO":999,"REV_AT_EPOCH":1929,"BSTAR":3.7812e-5,"MEAN_MOTION_DOT":3.6e-7,"MEAN_MOTION_DDOT":0},{"OBJECT_NAME":"QIANFAN-106","OBJECT_ID":"2025-233R","EPOCH":"2026-03-05T03:10:57.085824","MEAN_MOTION":13.51005182,"ECCENTRICITY":0.0002386,"INCLINATION":88.9922,"RA_OF_ASC_NODE":53.6827,"ARG_OF_PERICENTER":86.2305,"MEAN_ANOMALY":273.9119,"EPHEMERIS_TYPE":0,"CLASSIFICATION_TYPE":"U","NORAD_CAT_ID":66048,"ELEMENT_SET_NO":999,"REV_AT_EPOCH":1914,"BSTAR":3.7707e-5,"MEAN_MOTION_DOT":3.6e-7,"MEAN_MOTION_DDOT":0},{"OBJECT_NAME":"QIANFAN-107","OBJECT_ID":"2025-233S","EPOCH":"2026-03-05T03:22:50.623680","MEAN_MOTION":13.51003226,"ECCENTRICITY":0.0001924,"INCLINATION":88.9938,"RA_OF_ASC_NODE":53.6977,"ARG_OF_PERICENTER":90.7033,"MEAN_ANOMALY":269.4338,"EPHEMERIS_TYPE":0,"CLASSIFICATION_TYPE":"U","NORAD_CAT_ID":66049,"ELEMENT_SET_NO":999,"REV_AT_EPOCH":1914,"BSTAR":5.2286e-5,"MEAN_MOTION_DOT":4.6e-7,"MEAN_MOTION_DDOT":0},{"OBJECT_NAME":"QIANFAN-108","OBJECT_ID":"2025-233T","EPOCH":"2026-03-05T03:28:45.293952","MEAN_MOTION":13.51004727,"ECCENTRICITY":0.0002342,"INCLINATION":88.9931,"RA_OF_ASC_NODE":53.6924,"ARG_OF_PERICENTER":85.8303,"MEAN_ANOMALY":274.3116,"EPHEMERIS_TYPE":0,"CLASSIFICATION_TYPE":"U","NORAD_CAT_ID":66050,"ELEMENT_SET_NO":999,"REV_AT_EPOCH":1914,"BSTAR":4.7336e-5,"MEAN_MOTION_DOT":4.3e-7,"MEAN_MOTION_DDOT":0}]
