QIANFAN-103             
1 66045U 25233N   26064.19848657  .00000018  00000+0  95062-5 0  9997
2 66045  88.9936  53.7037 0001898  91.5441 268.5928 13.51006099 19140
QIANFAN-104             
1 66046U 25233P   26064.20238729  .00000028  00000+0  25121-4 0  9992
2 66046  88.9940  53.6008 0002080  85.9175 274.2214 13.51010201 19195
QIANFAN-105             
1 66047U 25233Q   26064.13648224  .00000036  00000+0  37812-4 0  9999
2 66047  88.9953  53.4366 0002040  92.4997 267.6388 13.50981462 19290
QIANFAN-106             
1 66048U 25233R   26064.13260516  .00000036  00000+0  37707-4 0  9997
2 66048  88.9922  53.6827 0002386  86.2305 273.9119 13.51005182 19141
QIANFAN-107             
1 66049U 25233S   26064.14086370  .00000046  00000+0  52286-4 0  9993
2 66049  88.9938  53.6977 0001924  90.7033 269.4338 13.51003226 19140
QIANFAN-108             
1 66050U 25233T   26064.14496868  .00000043  00000+0  47336-4 0  9999
2 66050  88.9931  53.6924 0002342  85.8303 274.3116 13.51004727 19143
